[{"OBJECT_NAME":"QIANFAN-20","OBJECT_ID":"2024-185B","EPOCH":"2026-03-09T23:23:01.518432","MEAN_MOTION":14.08938537,"ECCENTRICITY":0.00078766,"INCLINATION":88.976,"RA_OF_ASC_NODE":68.3354,"ARG_OF_PERICENTER":72.8404,"MEAN_ANOMALY":287.3642,"EPHEMERIS_TYPE":0,"CLASSIFICATION_TYPE":"U","NORAD_CAT_ID":61553,"ELEMENT_SET_NO":999,"REV_AT_EPOCH":8177,"BSTAR":0.00032795523,"MEAN_MOTION_DOT":5.81e-6,"MEAN_MOTION_DDOT":0},{"OBJECT_NAME":"CZ-6A DEB","OBJECT_ID":"2022-151TK","EPOCH":"2026-03-09T21:29:06.325440","MEAN_MOTION":14.06897293,"ECCENTRICITY":0.00656292,"INCLINATION":98.8656,"RA_OF_ASC_NODE":63.2506,"ARG_OF_PERICENTER":288.2484,"MEAN_ANOMALY":71.155,"EPHEMERIS_TYPE":0,"CLASSIFICATION_TYPE":"U","NORAD_CAT_ID":54970,"ELEMENT_SET_NO":999,"REV_AT_EPOCH":17021,"BSTAR":0.00065217331,"MEAN_MOTION_DOT":1.064e-5,"MEAN_MOTION_DDOT":0}]
